SENTINEL-6A             
1 46984U 20086A   26192.83555476 -.00000071  00000+0 -42358-4 0  9995
2 46984  66.0413  83.8588 0007811 269.9235  90.0885 12.80930061263489
SENTINEL-6B             
1 66514U 25264A   26192.83590267 -.00000071  00000+0 -41261-4 0  9998
2 66514  66.0413  83.9841 0007873 268.7579  91.2534 12.80930071 30329
